{
  "norad_id": 51880,
  "name": "STARLINK-3566",
  "history": [
    {
      "epoch": "2026-03-28T19:30:39.117600Z",
      "apogee_km": 540.7252832146596,
      "perigee_km": 538.7092821196047,
      "latitude_deg": 1.5184653073013083e-05,
      "longitude_deg": 164.1000026037145,
      "height_km": 540.5550134829488,
      "semi_major_axis_km": 6917.854282667132,
      "eccentricity": 0.00014571,
      "inclination_deg": 53.217,
      "raan_deg": 282.991,
      "arg_perigee_deg": 86.7126,
      "mean_anomaly_deg": 273.4033,
      "mean_motion_rev_day": 15.08848541
    }
  ]
}