{"fetched_at":"2026-03-29T16:36:15Z","count":15609,"tles":[{"name":"STARLINK-3566","line1":"1 51880U 22022AE  26087.81295275  .00000102  00000+0  24479-4 0  9994","line2":"2 51880  53.2170 282.9910 0001457  86.7126 273.4033 15.08848541226006","category":"Starlink"}]}